{
  "type": "FeatureCollection",
  "features": [
    {
      "type": "Feature",
      "properties": {
        "norad_id": 30504,
        "name": "FENGYUN 1C DEB",
        "group": "fengyun-1c-debris",
        "lat": 14.848666848727369,
        "lon": 28.942669735767925,
        "alt_km": 897.086024337078,
        "timestamp": "2025-12-11T05:00:26.585464+00:00",
        "meta_object_name": "FENGYUN 1C DEB",
        "meta_object_id": "1999-025AHS",
        "meta_epoch": "2025-12-10T21:18:14.225760",
        "meta_mean_motion": 14.20485068,
        "meta_eccentricity": 0.01120707,
        "meta_inclination": 99.0255,
        "meta_ra_of_asc_node": 31.0302,
        "meta_arg_of_pericenter": 221.7313,
        "meta_mean_anomaly": 312.3819,
        "meta_ephemeris_type": 0,
        "meta_classification_type": "U",
        "meta_norad_cat_id": 30504,
        "meta_element_set_no": 999,
        "meta_rev_at_epoch": 97367,
        "meta_bstar": 0.00077595748,
        "meta_mean_motion_dot": 1.728e-05,
        "meta_mean_motion_ddot": 0,
        "tle_line1": "1 30504U 99025AHS 25344.88766465  .00001728  00000+0  77596-3 0  9999",
        "tle_line2": "2 30504  99.0255  31.0302 0112070 221.7313 312.3819 14.20485068973670"
      },
      "geometry": {
        "type": "Point",
        "coordinates": [
          28.942669735767925,
          14.848666848727369
        ]
      }
    },
    {
      "type": "Feature",
      "properties": {
        "norad_id": 30505,
        "name": "FENGYUN 1C DEB",
        "group": "fengyun-1c-debris",
        "lat": -80.39738697467659,
        "lon": 176.586001979168,
        "alt_km": 782.9814002854446,
        "timestamp": "2025-12-11T05:00:26.585474+00:00",
        "meta_object_name": "FENGYUN 1C DEB",
        "meta_object_id": "1999-025AHT",
        "meta_epoch": "2025-12-10T04:15:21.342240",
        "meta_mean_motion": 14.22004317,
        "meta_eccentricity": 0.00633826,
        "meta_inclination": 98.9256,
        "meta_ra_of_asc_node": 63.8054,
        "meta_arg_of_pericenter": 249.3419,
        "meta_mean_anomaly": 140.2991,
        "meta_ephemeris_type": 0,
        "meta_classification_type": "U",
        "meta_norad_cat_id": 30505,
        "meta_element_set_no": 999,
        "meta_rev_at_epoch": 96887,
        "meta_bstar": 0.0023995419,
        "meta_mean_motion_dot": 5.369e-05,
        "meta_mean_motion_ddot": 0,
        "tle_line1": "1 30505U 99025AHT 25344.17733035  .00005369  00000+0  23995-2 0  9997",
        "tle_line2": "2 30505  98.9256  63.8054 0063382 249.3419 140.2991 14.22004317968872"
      },
      "geometry": {
        "type": "Point",
        "coordinates": [
          176.586001979168,
          -80.39738697467659
        ]
      }
    },
    {
      "type": "Feature",
      "properties": {
        "norad_id": 30506,
        "name": "FENGYUN 1C DEB",
        "group": "fengyun-1c-debris",
        "lat": 8.572746937150862,
        "lon": -11.004632640045637,
        "alt_km": 816.8023964441891,
        "timestamp": "2025-12-11T05:00:26.585484+00:00",
        "meta_object_name": "FENGYUN 1C DEB",
        "meta_object_id": "1999-025AHU",
        "meta_epoch": "2025-12-10T19:35:00.381696",
        "meta_mean_motion": 14.08647462,
        "meta_eccentricity": 0.00703783,
        "meta_inclination": 98.757,
        "meta_ra_of_asc_node": 349.9455,
        "meta_arg_of_pericenter": 353.4219,
        "meta_mean_anomaly": 184.9953,
        "meta_ephemeris_type": 0,
        "meta_classification_type": "U",
        "meta_norad_cat_id": 30506,
        "meta_element_set_no": 999,
        "meta_rev_at_epoch": 96794,
        "meta_bstar": 0.00046523285,
        "meta_mean_motion_dot": 7.76e-06,
        "meta_mean_motion_ddot": 0,
        "tle_line1": "1 30506U 99025AHU 25344.81597664  .00000776  00000+0  46523-3 0  9995",
        "tle_line2": "2 30506  98.7570 349.9455 0070378 353.4219 184.9953 14.08647462967949"
      },
      "geometry": {
        "type": "Point",
        "coordinates": [
          -11.004632640045637,
          8.572746937150862
        ]
      }
    },
    {
      "type": "Feature",
      "properties": {
        "norad_id": 30507,
        "name": "FENGYUN 1C DEB",
        "group": "fengyun-1c-debris",
        "lat": 77.46900822220519,
        "lon": -84.74560883229877,
        "alt_km": 826.9639857888469,
        "timestamp": "2025-12-11T05:00:26.585494+00:00",
        "meta_object_name": "FENGYUN 1C DEB",
        "meta_object_id": "1999-025AHV",
        "meta_epoch": "2025-12-10T22:33:52.397856",
        "meta_mean_motion": 14.13164072,
        "meta_eccentricity": 0.01283961,
        "meta_inclination": 99.0136,
        "meta_ra_of_asc_node": 49.4106,
        "meta_arg_of_pericenter": 181.3495,
        "meta_mean_anomaly": 353.865,
        "meta_ephemeris_type": 0,
        "meta_classification_type": "U",
        "meta_norad_cat_id": 30507,
        "meta_element_set_no": 999,
        "meta_rev_at_epoch": 96472,
        "meta_bstar": 0.0019554609,
        "meta_mean_motion_dot": 3.913e-05,
        "meta_mean_motion_ddot": 0,
        "tle_line1": "1 30507U 99025AHV 25344.94018979  .00003913  00000+0  19555-2 0  9997",
        "tle_line2": "2 30507  99.0136  49.4106 0128396 181.3495 353.8650 14.13164072964726"
      },
      "geometry": {
        "type": "Point",
        "coordinates": [
          -84.74560883229877,
          77.46900822220519
        ]
      }
    },
    {
      "type": "Feature",
      "properties": {
        "norad_id": 30509,
        "name": "FENGYUN 1C DEB",
        "group": "fengyun-1c-debris",
        "lat": -56.41800174157078,
        "lon": -129.89173874177553,
        "alt_km": 916.183246742401,
        "timestamp": "2025-12-11T05:00:26.585504+00:00",
        "meta_object_name": "FENGYUN 1C DEB",
        "meta_object_id": "1999-025AHX",
        "meta_epoch": "2025-12-09T14:10:58.156896",
        "meta_mean_motion": 14.07616411,
        "meta_eccentricity": 0.0101371,
        "meta_inclination": 98.4647,
        "meta_ra_of_asc_node": 215.6308,
        "meta_arg_of_pericenter": 72.3189,
        "meta_mean_anomaly": 318.358,
        "meta_ephemeris_type": 0,
        "meta_classification_type": "U",
        "meta_norad_cat_id": 30509,
        "meta_element_set_no": 999,
        "meta_rev_at_epoch": 95678,
        "meta_bstar": 0.0029808,
        "meta_mean_motion_dot": 5.238e-05,
        "meta_mean_motion_ddot": 0,
        "tle_line1": "1 30509U 99025AHX 25343.59095089  .00005238  00000+0  29808-2 0  9990",
        "tle_line2": "2 30509  98.4647 215.6308 0101371  72.3189 318.3580 14.07616411956789"
      },
      "geometry": {
        "type": "Point",
        "coordinates": [
          -129.89173874177553,
          -56.41800174157078
        ]
      }
    },
    {
      "type": "Feature",
      "properties": {
        "norad_id": 30510,
        "name": "FENGYUN 1C DEB",
        "group": "fengyun-1c-debris",
        "lat": -34.15017399876707,
        "lon": 3.5311211500001756,
        "alt_km": 907.2517897219304,
        "timestamp": "2025-12-11T05:00:26.585514+00:00",
        "meta_object_name": "FENGYUN 1C DEB",
        "meta_object_id": "1999-025AHY",
        "meta_epoch": "2025-12-10T12:53:37.357152",
        "meta_mean_motion": 14.12832157,
        "meta_eccentricity": 0.00786803,
        "meta_inclination": 99.245,
        "meta_ra_of_asc_node": 356.4952,
        "meta_arg_of_pericenter": 172.3801,
        "meta_mean_anomaly": 339.6609,
        "meta_ephemeris_type": 0,
        "meta_classification_type": "U",
        "meta_norad_cat_id": 30510,
        "meta_element_set_no": 999,
        "meta_rev_at_epoch": 96543,
        "meta_bstar": 0.0017476981,
        "meta_mean_motion_dot": 3.3e-05,
        "meta_mean_motion_ddot": 0,
        "tle_line1": "1 30510U 99025AHY 25344.53723793  .00003300  00000+0  17477-2 0  9994",
        "tle_line2": "2 30510  99.2450 356.4952 0078680 172.3801 339.6609 14.12832157965432"
      },
      "geometry": {
        "type": "Point",
        "coordinates": [
          3.5311211500001756,
          -34.15017399876707
        ]
      }
    },
    {
      "type": "Feature",
      "properties": {
        "norad_id": 30514,
        "name": "FENGYUN 1C DEB",
        "group": "fengyun-1c-debris",
        "lat": -8.992659424876361,
        "lon": 10.121142477242696,
        "alt_km": 817.1056485517083,
        "timestamp": "2025-12-11T05:00:26.585524+00:00",
        "meta_object_name": "FENGYUN 1C DEB",
        "meta_object_id": "1999-025AJC",
        "meta_epoch": "2025-12-10T19:00:17.070336",
        "meta_mean_motion": 14.34344778,
        "meta_eccentricity": 0.01745549,
        "meta_inclination": 98.4136,
        "meta_ra_of_asc_node": 8.3731,
        "meta_arg_of_pericenter": 99.8889,
        "meta_mean_anomaly": 262.2051,
        "meta_ephemeris_type": 0,
        "meta_classification_type": "U",
        "meta_norad_cat_id": 30514,
        "meta_element_set_no": 999,
        "meta_rev_at_epoch": 98197,
        "meta_bstar": 0.0007172766,
        "meta_mean_motion_dot": 2.348e-05,
        "meta_mean_motion_ddot": 0,
        "tle_line1": "1 30514U 99025AJC 25344.79186424  .00002348  00000+0  71728-3 0  9991",
        "tle_line2": "2 30514  98.4136   8.3731 0174554  99.8889 262.2051 14.34344778981972"
      },
      "geometry": {
        "type": "Point",
        "coordinates": [
          10.121142477242696,
          -8.992659424876361
        ]
      }
    }
  ]
}